[{"OBJECT_NAME":"TIANMU-1 09","OBJECT_ID":"2023-101C","EPOCH":"2026-03-09T22:17:34.703232","MEAN_MOTION":15.29080822,"ECCENTRICITY":0.00049013,"INCLINATION":97.267,"RA_OF_ASC_NODE":121.1263,"ARG_OF_PERICENTER":139.4293,"MEAN_ANOMALY":220.7314,"EPHEMERIS_TYPE":0,"CLASSIFICATION_TYPE":"U","NORAD_CAT_ID":57401,"ELEMENT_SET_NO":999,"REV_AT_EPOCH":14647,"BSTAR":0.00030540035,"MEAN_MOTION_DOT":8.553e-5,"MEAN_MOTION_DDOT":0},{"OBJECT_NAME":"STARLINK-30574","OBJECT_ID":"2023-160V","EPOCH":"2026-03-08T17:53:54.243744","MEAN_MOTION":15.2677105,"ECCENTRICITY":0.00012695,"INCLINATION":42.9995,"RA_OF_ASC_NODE":83.0195,"ARG_OF_PERICENTER":272.887,"MEAN_ANOMALY":87.1836,"EPHEMERIS_TYPE":0,"CLASSIFICATION_TYPE":"U","NORAD_CAT_ID":58094,"ELEMENT_SET_NO":999,"REV_AT_EPOCH":13280,"BSTAR":-1.1421933e-5,"MEAN_MOTION_DOT":-5.66e-6,"MEAN_MOTION_DDOT":0}]
